#dP2022  3  5  0  0  0.00000000      96 __u+U ITR00 FIT  IAC
## 2199 518400.00000000   900.00000000 59643 0.0000000000000
+  127   C01C02C03C04C05C06C07C08C09C10C11C12C13C14C16C19C20
+        C21C22C23C24C25C26C27C28C29C30C32C33C34C35C36C37C38
+        C39C40C41C42C43C44C45C46C59C60E01E02E03E04E05E07E08
+        E09E10E11E12E13E14E15E18E19E21E25E26E27E30E31E33E34
+        E36G01G02G03G04G05G06G07G08G09G10G11G12G13G14G15G16
+        G17G18G19G20G21G22G23G24G25G26G27G28G29G30G31G32J01
+        J02J03R01R02R03R04R05R06R07R08R09R10R11R12R13R14R15
+        R17R18R19R20R21R22R23R24  0  0  0  0  0  0  0  0  0
++        15 14 14 14 14  9  9  9  8  8  8  8  8  9  9  7  7
++         7  7  7  7  7  7  7  7  7  7  7  7  7  7  7  7  8
++         8  8  7  7  7  7  7  7 16 14  4  4  4  4  4  4  4
++         4  6  4  5  4  4  4  5  4  4  4  4  4  4  4  5  4
++         4  3  4  3  3  4  3  4  4  4  4  4  3  4  4  4  4
++         4  4  3  4  4  3  4  4  3  4  4  4  4  4  4  3  8
++         8  8  7  6  6  6  6 13  6  6  6 13  8  6  7  6  6
++         5  6  7  7  6  8 13  6  0  0  0  0  0  0  0  0  0
%c M  cc GPS ccc cccc cccc cccc cccc ccccc ccccc ccccc ccccc
%c cc cc ccc ccc cccc cccc cccc cccc ccccc ccccc ccccc ccccc
%f  0.0000000  0.000000000  0.00000000000  0.000000000000000
%f  0.0000000  0.000000000  0.00000000000  0.000000000000000
%i    0    0    0    0      0      0      0      0         0
%i    0    0    0    0      0      0      0      0         0
/* INFORMATION & ANALYSIS CENTER (IAC)            RAPID DATA
/* S/V CLOCKS ARE ALIGNED TO GNSS TIME                      
/* G:C1WC2W R:C1PC2P E:C1XC5X C:C2IC6I J:C1CC2S             
/* PCV:IGS14_2196 OL/AL:FES2004  NONE     YN ORB:CoN CLK:CoN
*  2022 03 05 23  0  0.00000000
PC01 -34342.369101  24454.063061   -294.973872    -60.277195
PC02   4501.268484  41956.293041    696.481519    255.691233
PC03 -14785.436311  39526.782285   -227.700869    900.859741
PC04 -39642.425917  14361.708580   -684.425457    -51.207965
PC05  22075.966584  35984.034743    612.247426   -406.734564
PC06  -5060.546041  24870.566148  33696.374494   -443.020704
PC07 -18602.291092  33307.377417 -18101.173197    171.608233
PC08  -5536.623894  39433.269489 -13620.441350    177.377781
PC09   6083.575854  29022.063458  30488.685286   -578.543355
PC10 -11712.727089  33339.239927 -23078.351283    139.290566
PC11 -19064.262368   4481.897597 -19823.905585   -169.566650
PC12 -25694.887309  -9282.446321  -5668.133294    682.131824
PC13     75.963708  41669.915675  -5354.271691    -98.263017
PC14 -23653.638321  14833.635226   -930.046244    451.877300
PC16  -5992.287308  23938.432676  34364.796245     96.142112
PC19  18516.216895 -19106.578546  -8358.255128    889.379887
PC20  24857.549548  -9346.062830   8547.464137   -838.345201
PC21 -16666.677737  -6645.912385 -21356.501805   -926.806716
PC22   1170.416115 -18176.958776 -21128.204666   -959.465845
PC23   2745.495385  27708.267796  -1814.926040   -948.366125
PC24 -16165.479697   2220.564916  22620.972359   -945.332740
PC25  -8550.583055  22370.358641  14296.452443   -770.167657
PC26 -13970.018088 -16464.424216  17683.417779    770.261702
PC27  23497.982607  14743.988634  -3153.662236    687.331190
PC28   9310.997008  19028.844863 -18162.402545     40.073568
PC29  10341.824198 -12504.463218  22697.805265    523.676369
PC30  24520.321554   1471.228331  13262.171639    494.601935
PC32  16668.707262   6607.681965  21400.714185   -971.538395
PC33 -18446.266957  19230.833793   8323.172667   -962.645891
PC34 -24101.048378   -697.266608 -14035.466818   -454.895303
PC35  -9088.244052 -18687.508711  18600.318950    168.685847
PC36   9335.325646 -21830.053782 -14653.514724   -929.691790
PC37  13167.772197  17758.487309 -17006.418884   -947.765498
PC38  -9821.048910  36217.656979 -19038.874629    215.891337
PC39 -12634.192376  20662.482231  34518.233565     34.850661
PC40 -25395.322060  28649.945028 -17853.963158    249.797192
PC41  -1532.723001  18405.471321  20973.840084   -949.387174
PC42 -24813.888880   8695.038561  -9327.262377   -935.398636
PC43 -11071.883042  12194.654798 -22530.615017   -937.871638
PC44 -23887.380303 -14000.064853   3306.848726    585.354159
PC45  -2908.854113 -27692.110295   2045.124689    697.071479
PC46  15883.186686  -3954.917239 -22608.775996   -202.123027
PC59 -32316.482286  27082.857018    613.097036     -0.237193
PC60   7310.797822  41512.030240  -1370.910901     -0.356898
PE01  12613.223492 -26776.199711    709.078669   -591.189235
PE02 -12497.284306  26805.188559   -879.973999    284.350894
PE03 -12067.229912  16181.785650  21652.549345   -534.338866
PE04 -10218.372630 -15539.212679 -23019.996494   -978.254496
PE05 -27676.238344   7319.983779   7526.432416   -203.124993
PE07  26967.572698   5687.433394  10796.020975   -645.413295
PE08  10690.611592  15255.379374  23003.707435   -490.230914
PE09 -27106.262722  -5365.303680 -10624.275283   5338.572286
PE10 -18756.359122 -22550.129745  -3974.641569   -498.844602
PE11 -21297.283534 -15410.878246 -13588.540927   4302.920810
PE12 -13212.174272 -25844.551649   5740.183394   4728.074834
PE13  21258.110276  15958.678879  13043.212364    427.048614
PE14 -30233.797128   1083.759165  -5675.030302  -1767.921276
PE15  13220.557370  25827.481500  -5880.336171    759.535140
PE18  24615.026810   6926.907944  -4240.866659  -1718.464271
PE19  14662.513371 -15409.882459 -20579.985082   -829.236298
PE21  19597.477137 -15400.873011 -15980.276965   -720.839652
PE25 -19618.384094  15153.454730  16167.674423   -565.787048
PE26  16368.076265  -4286.114449  24295.768251   -878.548809
PE27  15799.374541   5495.906177 -24423.347019   -246.557826
PE30   1855.854829  23632.392114 -17728.006903   -324.999092
PE31  -2727.149103 -23008.688375  18427.913250   -493.105184
PE33   2603.099093 -20414.952992  21277.390871   -458.845906
PE34  -2379.936371  20563.226020 -21159.484269   -505.200399
PE36 -16750.281464   3229.623231 -24181.441252   -341.188800
PG01  16933.079118   5213.504086  19620.328723    415.983435
PG02 -15033.314471 -21565.922462  -2559.638395   -651.871453
PG03  18608.177303  -6234.168042  17742.519679   -150.246769
PG04  26443.323775    470.021851  -2891.457249   -185.611174
PG05 -11870.725133  -9860.149141 -21768.934775    -73.644063
PG06  -3755.274748 -23895.075061  10950.303767    221.724936
PG07  10586.352477 -11990.186121 -20740.069063    314.397838
PG08  24818.362762   6332.917503  -7717.605395    -58.692869
PG09  21754.128476  -8254.601841 -12905.993844   -351.258957
PG10 -10579.191389  23491.659020   5929.156842   -338.316192
PG11 -12698.575676 -23061.030467  -3582.467234    -70.088104
PG12 -18011.037766   1941.728730  19109.289490   -180.485200
PG13 -18971.052675 -13139.071073 -13445.544949    272.027421
PG14  12178.281796 -23022.356911   4997.895849    -90.890128
PG15 -25476.124994  -3911.515974  -7473.779456    -79.026177
PG16   7658.597051  13973.928601 -21440.538988   -477.221856
PG17   7834.895219 -13755.163398  21769.834615    583.418455
PG18 -10284.944749  12181.068227 -21228.685648    226.444184
PG19   -977.886374 -14953.784944  21684.772737    127.192042
PG20  -5894.330567 -18689.957564 -18036.226999    516.427324
PG21  19251.702708  13686.467148  13429.911666    158.996111
PG22   4494.577498  15707.328918  21377.079114    223.066809
PG23 -16692.635001  19890.778794  -5348.571137     -4.306200
PG24 -19130.491603  -8412.842402  16326.859415    270.472737
PG25 -18831.902448  14741.438928  10962.691847    294.307137
PG26   -947.717793  22287.952938 -14263.620393    188.441589
PG27  16824.991084  12437.379975 -16792.717051    143.812056
PG28   6275.326178 -22490.065018  13388.058508    386.843731
PG29 -23515.203651   4610.336474 -11566.326186   -487.871640
PG30   4491.107429 -19702.020632 -17036.293190   -517.077899
PG31   5057.582409  24436.601097   8252.097401   -167.613849
PG32  -2816.300467  15154.116000  21753.442133    -79.229133
PJ01 -32099.291983  25233.391421  15348.139398    214.571270
PJ02 -31957.883809  25556.080350  15117.670730     -1.767325
PJ03 -25331.649747  16983.711042 -24525.348150     -0.831289
PR01  -7273.031482  13840.961143  20163.328979      7.184966
PR02  12796.244960   5646.390818  21392.272239    511.608434
PR03  23309.779454  -5006.783813   9193.626960     52.592539
PR04  20713.475651 -12573.160981  -7956.543831    130.579061
PR05   6769.916689 -13237.964140 -20718.830074     88.846414
PR06 -13844.462020  -4807.364912 -20877.113765    -36.037465
PR07 -23423.936853   5436.354907  -8398.175201     32.331587
PR08 -20527.439427  12747.377965   8192.132106    -63.883871
PR09  -7046.896648 -16793.260938  17838.840139     42.807882
PR10 -11045.935161   -315.469321  22974.179555    -80.318436
PR11  -9328.854282  18143.483211  15324.746405     44.242854
PR12  -2014.723599  25315.315962  -2249.692289     17.355923
PR13   6297.663782  17799.783244 -17170.263691    -19.078975
PR14  11290.717125  -1247.352536 -22833.246417     75.073089
PR15   9413.348892 -18617.626679 -14667.169651     97.749922
PR17  20228.080213   7926.928727  13351.333328    507.127464
PR18  10639.541846  -4622.258588  22742.094930    109.364921
PR19  -3214.434297 -14543.875620  20708.554214   -180.498019
PR20 -17975.697389 -17483.065122   4546.826828    -66.155666
PR21 -19743.421220  -7081.249410 -14527.757980   -282.997249
PR22  -9775.576805   5307.237540 -22955.172605   -168.722141
PR23   8757.118908  16688.309187 -17199.633154    -32.516904
PR24  18664.238437  16967.771199  -3757.850345     83.059907
EOF
